OBJECT_NAME,OBJECT_ID,EPOCH,MEAN_MOTION,ECCENTRICITY,INCLINATION,RA_OF_ASC_NODE,ARG_OF_PERICENTER,MEAN_ANOMALY,EPHEMERIS_TYPE,CLASSIFICATION_TYPE,NORAD_CAT_ID,ELEMENT_SET_NO,REV_AT_EPOCH,BSTAR,MEAN_MOTION_DOT,MEAN_MOTION_DDOT
STARLINK-38047,2026-150G,2026-07-14T12:13:16.222656,15.80859566,.00036662,97.2820,33.8437,125.3440,234.8171,0,U,69745,999,321,.71675095E-3,.139688E-2,0
STARLINK-38046,2026-150H,2026-07-15T12:28:57.315648,15.80867235,.00010688,97.2828,34.9181,90.3257,269.8134,0,U,69746,999,337,.88245202E-3,.172678E-2,0
STARLINK-38067,2026-150J,2026-07-15T12:51:41.277024,15.75208991,.00011195,97.2834,34.8963,20.4120,339.7190,0,U,69747,999,337,.11865064E-2,.180789E-2,0
STARLINK-37988,2026-150K,2026-07-15T12:49:08.711040,15.75221186,.00009418,97.2831,34.8986,33.2749,326.8575,0,U,69748,999,337,.97688532E-3,.148335E-2,0
STARLINK-37987,2026-150L,2026-07-15T14:00:01.999872,15.75283252,.00012326,97.2835,34.9631,79.7413,223.3358,0,U,69749,999,336,-.13080912E-2,-.191701E-2,0
STARLINK-38037,2026-150M,2026-07-15T12:22:22.425312,15.80859532,.00010112,97.2826,34.9249,80.7861,279.3522,0,U,69750,999,337,.75374461E-3,.146983E-2,0
STARLINK-38049,2026-150N,2026-07-15T12:20:54.482208,15.80863571,.00008366,97.2834,34.9277,61.2439,298.8913,0,U,69751,999,337,.77739437E-3,.15171E-2,0
STARLINK-38029,2026-150P,2026-07-15T14:00:01.999872,15.75235025,.00010467,97.2837,35.0028,101.8637,295.1477,0,U,69752,999,336,-.21810414E-3,-.326E-3,0
STARLINK-37965,2026-150Q,2026-07-15T14:00:01.999872,15.75311654,.00014268,97.2831,34.9872,88.9688,270.0977,0,U,69753,999,336,-.16540514E-2,-.241285E-2,0
STARLINK-38048,2026-150R,2026-07-15T12:12:05.756544,15.80926723,.00012015,97.2830,34.9357,113.3846,246.7549,0,U,69754,999,337,.13138297E-2,.260492E-2,0
STARLINK-38006,2026-150S,2026-07-15T14:00:01.999872,15.75255778,.00007443,97.2842,35.0085,128.0019,282.9582,0,U,69755,999,336,-.12232939E-3,-.18388E-3,0
STARLINK-38036,2026-150T,2026-07-15T14:00:01.999872,15.77889204,.00019934,97.2836,35.0246,68.7963,17.2057,0,U,69756,999,336,-.13168642E-1,-.1925849E-1,0
STARLINK-38058,2026-150U,2026-07-15T08:00:01.999872,15.80839101,.00014243,97.2831,34.7635,94.6709,14.7033,0,U,69757,999,332,-.2042199E-3,-.39126E-3,0
STARLINK-38066,2026-150V,2026-07-15T08:00:01.999872,15.80829398,.00015162,97.2834,34.7635,83.1509,27.0771,0,U,69758,999,332,-.13030531E-3,-.25046E-3,0
STARLINK-38035,2026-150W,2026-07-15T12:05:26.488320,15.80941446,.00012769,97.2831,34.9423,99.7188,260.4225,0,U,69759,999,337,.14710871E-2,.292986E-2,0
STARLINK-38056,2026-150X,2026-07-15T12:00:26.316576,15.80908796,.00014639,97.2833,34.9472,106.7473,253.3956,0,U,69760,999,337,.91636623E-3,.179811E-2,0
STARLINK-38069,2026-150Y,2026-07-15T11:55:28.818912,15.80929921,.0001427,97.2833,34.9521,100.2557,259.8872,0,U,69761,999,337,.13386221E-2,.265606E-2,0
STARLINK-38019,2026-150Z,2026-07-15T14:00:01.999872,15.75209722,.00007806,97.2839,35.0103,88.4466,326.6301,0,U,69762,999,336,-.2901867E-3,-.43229E-3,0
KUIPER-00258,2026-151A,2026-07-15T09:31:58.735776,15.35386416,.00117318,51.8670,179.5825,169.0630,191.0613,0,U,69763,999,204,.177334E-3,.5818E-4,0
KUIPER-00526,2026-151B,2026-07-15T13:51:01.241280,15.37322286,.00060147,51.8753,178.5459,140.0224,220.1207,0,U,69764,999,207,.3091868E-3,.11114E-3,0
KUIPER-00558,2026-151C,2026-07-15T13:57:05.737824,15.36555616,.00064578,51.8745,178.5740,145.4920,214.6487,0,U,69765,999,207,-.39425626E-2,-.14075E-2,0
KUIPER-00569,2026-151D,2026-07-15T10:41:36.453120,15.37466891,.00050925,51.8776,179.1642,137.9006,222.2373,0,U,69766,999,205,.19737058E-3,.6981E-4,0
KUIPER-00589,2026-151E,2026-07-15T10:42:37.443744,15.37415586,.00053079,51.8746,179.1696,143.2002,216.9350,0,U,69767,999,205,.26993284E-3,.968E-4,0
KUIPER-00598,2026-151F,2026-07-15T14:12:41.575104,15.34901153,.00112643,51.8672,178.6389,164.8916,195.2408,0,U,69768,999,207,-.9990209E-3,-.34634E-3,0
KUIPER-00604,2026-151G,2026-07-15T13:39:34.807104,15.38236229,.00027249,51.8790,178.4911,108.4024,251.7259,0,U,69769,999,207,.23370597E-3,.8558E-4,0
KUIPER-00609,2026-151H,2026-07-15T10:27:20.191104,15.38638316,.00011553,51.8792,179.0967,58.4321,301.6779,0,U,69770,999,205,.36207397E-3,.13667E-3,0
KUIPER-00611,2026-151J,2026-07-15T13:36:56.047104,15.38449171,.00016467,51.8795,178.4750,103.5365,256.5806,0,U,69771,999,207,.23733635E-3,.876E-4,0
KUIPER-00612,2026-151K,2026-07-15T13:43:16.219200,15.37939327,.00037318,51.8783,178.5094,117.0263,243.1106,0,U,69772,999,207,.24939809E-3,.9069E-4,0
KUIPER-00614,2026-151L,2026-07-15T13:40:38.853696,15.38149504,.00026986,51.8794,178.4953,123.2384,236.8862,0,U,69773,999,207,.22772077E-3,.8304E-4,0
KUIPER-00615,2026-151M,2026-07-15T10:44:54.469824,15.37229835,.00061729,51.8764,179.1791,149.2417,210.8932,0,U,69774,999,205,.29560392E-3,.10575E-3,0
